<?xml version="1.0" encoding="UTF-8"?>
<!-- track-length = 31252 filtered ascend = 101 plain-ascend = 0 cost=36851 energy=.2kwh time=1h 31m 31s -->
<gpx 
 xmlns="http://www.topografix.com/GPX/1/1" 
 xmlns:xsi="http://www.w3.org/2001/XMLSchema-instance" 
 xsi:schemaLocation="http://www.topografix.com/GPX/1/1 http://www.topografix.com/GPX/1/1/gpx.xsd" 
 creator="BRouter-1.7.10" version="1.1">
 <wpt lat="49.473553" lon="20.015528"><name>Dworzec PKP Nowy Targ</name></wpt>
<wpt lat="49.482637" lon="20.080073"><name>Waksmund</name></wpt>
<wpt lat="49.479928" lon="20.100284"><name>Ostrowsko</name></wpt>
<wpt lat="49.476955" lon="20.133813"><name>Łopuszna</name></wpt>
<wpt lat="49.440770" lon="20.144021"><name>Nowa Biała</name></wpt>
<wpt lat="49.441959" lon="20.087642"><name>Gronków</name></wpt>
<wpt lat="49.457937" lon="20.045437"><name>Rezerwat Bór na Czerwonem</name></wpt>
<trk>
  <name>Petla_Nowy_Targ_Velo_Dunajec_Szlak_wokol_Tatr</name>
  <trkseg>
   <trkpt lon="20.015696" lat="49.473606"><ele>601.5</ele></trkpt>
   <trkpt lon="20.015615" lat="49.473715"><ele>601.5</ele></trkpt>
   <trkpt lon="20.015660" lat="49.473729"><ele>601.5</ele></trkpt>
   <trkpt lon="20.015738" lat="49.473751"><ele>601.25</ele></trkpt>
   <trkpt lon="20.015783" lat="49.473760"><ele>601.25</ele></trkpt>
   <trkpt lon="20.016614" lat="49.474063"><ele>601.0</ele></trkpt>
   <trkpt lon="20.016491" lat="49.474312"><ele>600.25</ele></trkpt>
   <trkpt lon="20.016727" lat="49.474636"><ele>600.0</ele></trkpt>
   <trkpt lon="20.016737" lat="49.474659"><ele>600.0</ele></trkpt>
   <trkpt lon="20.016734" lat="49.474684"><ele>600.0</ele></trkpt>
   <trkpt lon="20.016726" lat="49.474722"><ele>600.0</ele></trkpt>
   <trkpt lon="20.016697" lat="49.474764"><ele>600.0</ele></trkpt>
   <trkpt lon="20.016675" lat="49.474796"><ele>600.0</ele></trkpt>
   <trkpt lon="20.016685" lat="49.474814"><ele>600.0</ele></trkpt>
   <trkpt lon="20.016706" lat="49.474829"><ele>600.0</ele></trkpt>
   <trkpt lon="20.016760" lat="49.474844"><ele>600.0</ele></trkpt>
   <trkpt lon="20.016631" lat="49.475013"><ele>600.0</ele></trkpt>
   <trkpt lon="20.016459" lat="49.475242"><ele>600.0</ele></trkpt>
   <trkpt lon="20.016881" lat="49.475349"><ele>599.0</ele></trkpt>
   <trkpt lon="20.017029" lat="49.475381"><ele>599.0</ele></trkpt>
   <trkpt lon="20.017390" lat="49.475377"><ele>599.0</ele></trkpt>
   <trkpt lon="20.017669" lat="49.475374"><ele>599.0</ele></trkpt>
   <trkpt lon="20.017700" lat="49.475755"><ele>599.0</ele></trkpt>
   <trkpt lon="20.017699" lat="49.476106"><ele>598.0</ele></trkpt>
   <trkpt lon="20.017757" lat="49.476698"><ele>597.0</ele></trkpt>
   <trkpt lon="20.017741" lat="49.477034"><ele>596.5</ele></trkpt>
   <trkpt lon="20.017768" lat="49.477156"><ele>596.25</ele></trkpt>
   <trkpt lon="20.017887" lat="49.477343"><ele>596.0</ele></trkpt>
   <trkpt lon="20.017916" lat="49.477388"><ele>596.0</ele></trkpt>
   <trkpt lon="20.017935" lat="49.477486"><ele>596.0</ele></trkpt>
   <trkpt lon="20.017934" lat="49.477531"><ele>596.0</ele></trkpt>
   <trkpt lon="20.017931" lat="49.477658"><ele>596.0</ele></trkpt>
   <trkpt lon="20.017939" lat="49.478201"><ele>595.5</ele></trkpt>
   <trkpt lon="20.017939" lat="49.478291"><ele>595.5</ele></trkpt>
   <trkpt lon="20.017940" lat="49.478322"><ele>595.5</ele></trkpt>
   <trkpt lon="20.017985" lat="49.478326"><ele>595.5</ele></trkpt>
   <trkpt lon="20.018015" lat="49.478337"><ele>595.75</ele></trkpt>
   <trkpt lon="20.018040" lat="49.478353"><ele>595.75</ele></trkpt>
   <trkpt lon="20.018061" lat="49.478388"><ele>595.75</ele></trkpt>
   <trkpt lon="20.018062" lat="49.478415"><ele>595.5</ele></trkpt>
   <trkpt lon="20.018053" lat="49.478435"><ele>595.5</ele></trkpt>
   <trkpt lon="20.018014" lat="49.478466"><ele>595.25</ele></trkpt>
   <trkpt lon="20.017970" lat="49.478479"><ele>595.25</ele></trkpt>
   <trkpt lon="20.017994" lat="49.478503"><ele>595.25</ele></trkpt>
   <trkpt lon="20.018057" lat="49.478567"><ele>595.0</ele></trkpt>
   <trkpt lon="20.018099" lat="49.478611"><ele>595.0</ele></trkpt>
   <trkpt lon="20.019676" lat="49.479635"><ele>594.25</ele></trkpt>
   <trkpt lon="20.020788" lat="49.480336"><ele>593.75</ele></trkpt>
   <trkpt lon="20.020746" lat="49.480366"><ele>593.5</ele></trkpt>
   <trkpt lon="20.020733" lat="49.480396"><ele>593.25</ele></trkpt>
   <trkpt lon="20.020736" lat="49.480420"><ele>593.25</ele></trkpt>
   <trkpt lon="20.020765" lat="49.480445"><ele>593.0</ele></trkpt>
   <trkpt lon="20.020889" lat="49.480518"><ele>593.0</ele></trkpt>
   <trkpt lon="20.020943" lat="49.480573"><ele>592.75</ele></trkpt>
   <trkpt lon="20.020867" lat="49.480806"><ele>590.5</ele></trkpt>
   <trkpt lon="20.020932" lat="49.480813"><ele>590.75</ele></trkpt>
   <trkpt lon="20.021002" lat="49.480821"><ele>591.25</ele></trkpt>
   <trkpt lon="20.021420" lat="49.480842"><ele>590.75</ele></trkpt>
   <trkpt lon="20.021618" lat="49.480860"><ele>590.5</ele></trkpt>
   <trkpt lon="20.021898" lat="49.480868"><ele>591.0</ele></trkpt>
   <trkpt lon="20.022054" lat="49.480872"><ele>591.5</ele></trkpt>
   <trkpt lon="20.022113" lat="49.480857"><ele>592.0</ele></trkpt>
   <trkpt lon="20.022237" lat="49.480826"><ele>593.0</ele></trkpt>
   <trkpt lon="20.023672" lat="49.481137"><ele>592.0</ele></trkpt>
   <trkpt lon="20.023827" lat="49.481169"><ele>592.0</ele></trkpt>
   <trkpt lon="20.023990" lat="49.481212"><ele>592.0</ele></trkpt>
   <trkpt lon="20.025227" lat="49.481521"><ele>591.5</ele></trkpt>
   <trkpt lon="20.025354" lat="49.481556"><ele>591.25</ele></trkpt>
   <trkpt lon="20.025995" lat="49.481677"><ele>591.0</ele></trkpt>
   <trkpt lon="20.026267" lat="49.481723"><ele>590.75</ele></trkpt>
   <trkpt lon="20.026524" lat="49.481749"><ele>591.0</ele></trkpt>
   <trkpt lon="20.026634" lat="49.481754"><ele>591.0</ele></trkpt>
   <trkpt lon="20.026844" lat="49.481744"><ele>590.75</ele></trkpt>
   <trkpt lon="20.027037" lat="49.481724"><ele>590.75</ele></trkpt>
   <trkpt lon="20.027541" lat="49.481654"><ele>590.75</ele></trkpt>
   <trkpt lon="20.027710" lat="49.481620"><ele>590.75</ele></trkpt>
   <trkpt lon="20.027797" lat="49.481583"><ele>591.0</ele></trkpt>
   <trkpt lon="20.027926" lat="49.481510"><ele>591.0</ele></trkpt>
   <trkpt lon="20.027995" lat="49.481485"><ele>591.0</ele></trkpt>
   <trkpt lon="20.028049" lat="49.481480"><ele>591.0</ele></trkpt>
   <trkpt lon="20.028051" lat="49.481480"><ele>591.0</ele></trkpt>
   <trkpt lon="20.028872" lat="49.481494"><ele>592.0</ele></trkpt>
   <trkpt lon="20.028988" lat="49.481496"><ele>592.0</ele></trkpt>
   <trkpt lon="20.029081" lat="49.481498"><ele>592.0</ele></trkpt>
   <trkpt lon="20.029950" lat="49.481511"><ele>591.5</ele></trkpt>
   <trkpt lon="20.030074" lat="49.481521"><ele>591.5</ele></trkpt>
   <trkpt lon="20.030351" lat="49.481569"><ele>591.25</ele></trkpt>
   <trkpt lon="20.030660" lat="49.481579"><ele>591.25</ele></trkpt>
   <trkpt lon="20.030923" lat="49.481587"><ele>591.25</ele></trkpt>
   <trkpt lon="20.031543" lat="49.481608"><ele>591.0</ele></trkpt>
   <trkpt lon="20.031735" lat="49.481602"><ele>591.0</ele></trkpt>
   <trkpt lon="20.031906" lat="49.481595"><ele>591.0</ele></trkpt>
   <trkpt lon="20.032046" lat="49.481598"><ele>591.0</ele></trkpt>
   <trkpt lon="20.032843" lat="49.481616"><ele>590.75</ele></trkpt>
   <trkpt lon="20.032986" lat="49.481618"><ele>590.25</ele></trkpt>
   <trkpt lon="20.033940" lat="49.481656"><ele>590.0</ele></trkpt>
   <trkpt lon="20.034033" lat="49.481661"><ele>590.0</ele></trkpt>
   <trkpt lon="20.034022" lat="49.481952"><ele>589.75</ele></trkpt>
   <trkpt lon="20.034049" lat="49.482011"><ele>590.0</ele></trkpt>
   <trkpt lon="20.034111" lat="49.482071"><ele>590.0</ele></trkpt>
   <trkpt lon="20.034162" lat="49.482099"><ele>590.0</ele></trkpt>
   <trkpt lon="20.034214" lat="49.482127"><ele>590.0</ele></trkpt>
   <trkpt lon="20.034296" lat="49.482076"><ele>590.0</ele></trkpt>
   <trkpt lon="20.034360" lat="49.482047"><ele>590.0</ele></trkpt>
   <trkpt lon="20.034459" lat="49.482023"><ele>589.75</ele></trkpt>
   <trkpt lon="20.034556" lat="49.482011"><ele>589.5</ele></trkpt>
   <trkpt lon="20.034886" lat="49.481996"><ele>589.0</ele></trkpt>
   <trkpt lon="20.035839" lat="49.481970"><ele>587.0</ele></trkpt>
   <trkpt lon="20.036516" lat="49.481951"><ele>586.0</ele></trkpt>
   <trkpt lon="20.036700" lat="49.481945"><ele>585.75</ele></trkpt>
   <trkpt lon="20.036858" lat="49.481938"><ele>586.0</ele></trkpt>
   <trkpt lon="20.037340" lat="49.481899"><ele>585.75</ele></trkpt>
   <trkpt lon="20.037788" lat="49.481848"><ele>585.75</ele></trkpt>
   <trkpt lon="20.038424" lat="49.481752"><ele>585.75</ele></trkpt>
   <trkpt lon="20.038600" lat="49.481722"><ele>585.75</ele></trkpt>
   <trkpt lon="20.038716" lat="49.481669"><ele>585.75</ele></trkpt>
   <trkpt lon="20.038798" lat="49.481651"><ele>585.75</ele></trkpt>
   <trkpt lon="20.039013" lat="49.481609"><ele>585.75</ele></trkpt>
   <trkpt lon="20.039109" lat="49.481588"><ele>585.5</ele></trkpt>
   <trkpt lon="20.039357" lat="49.481535"><ele>585.0</ele></trkpt>
   <trkpt lon="20.039578" lat="49.481506"><ele>585.25</ele></trkpt>
   <trkpt lon="20.039635" lat="49.481501"><ele>585.25</ele></trkpt>
   <trkpt lon="20.040238" lat="49.481358"><ele>586.0</ele></trkpt>
   <trkpt lon="20.041415" lat="49.481076"><ele>585.0</ele></trkpt>
   <trkpt lon="20.041597" lat="49.481032"><ele>585.75</ele></trkpt>
   <trkpt lon="20.041608" lat="49.481078"><ele>585.75</ele></trkpt>
   <trkpt lon="20.041749" lat="49.481258"><ele>584.75</ele></trkpt>
   <trkpt lon="20.042063" lat="49.481483"><ele>583.75</ele></trkpt>
   <trkpt lon="20.042284" lat="49.481697"><ele>583.75</ele></trkpt>
   <trkpt lon="20.042515" lat="49.481943"><ele>584.0</ele></trkpt>
   <trkpt lon="20.042746" lat="49.482213"><ele>582.75</ele></trkpt>
   <trkpt lon="20.043297" lat="49.482994"><ele>582.75</ele></trkpt>
   <trkpt lon="20.043771" lat="49.483731"><ele>582.0</ele></trkpt>
   <trkpt lon="20.044213" lat="49.484377"><ele>581.75</ele></trkpt>
   <trkpt lon="20.044443" lat="49.484623"><ele>581.0</ele></trkpt>
   <trkpt lon="20.044910" lat="49.484980"><ele>581.5</ele></trkpt>
   <trkpt lon="20.045157" lat="49.485120"><ele>581.0</ele></trkpt>
   <trkpt lon="20.045350" lat="49.485243"><ele>581.0</ele></trkpt>
   <trkpt lon="20.045930" lat="49.485580"><ele>581.5</ele></trkpt>
   <trkpt lon="20.046243" lat="49.485778"><ele>580.75</ele></trkpt>
   <trkpt lon="20.046369" lat="49.485849"><ele>581.5</ele></trkpt>
   <trkpt lon="20.047043" lat="49.486275"><ele>580.25</ele></trkpt>
   <trkpt lon="20.047434" lat="49.486475"><ele>580.0</ele></trkpt>
   <trkpt lon="20.047805" lat="49.486634"><ele>580.0</ele></trkpt>
   <trkpt lon="20.048126" lat="49.486687"><ele>580.0</ele></trkpt>
   <trkpt lon="20.048785" lat="49.486696"><ele>580.75</ele></trkpt>
   <trkpt lon="20.049127" lat="49.486676"><ele>580.0</ele></trkpt>
   <trkpt lon="20.050147" lat="49.486593"><ele>579.25</ele></trkpt>
   <trkpt lon="20.051413" lat="49.486530"><ele>579.0</ele></trkpt>
   <trkpt lon="20.051787" lat="49.486521"><ele>579.0</ele></trkpt>
   <trkpt lon="20.052454" lat="49.486527"><ele>579.0</ele></trkpt>
   <trkpt lon="20.053819" lat="49.486526"><ele>578.5</ele></trkpt>
   <trkpt lon="20.055987" lat="49.486557"><ele>578.0</ele></trkpt>
   <trkpt lon="20.056614" lat="49.486557"><ele>578.0</ele></trkpt>
   <trkpt lon="20.057360" lat="49.486572"><ele>578.0</ele></trkpt>
   <trkpt lon="20.057752" lat="49.486605"><ele>577.75</ele></trkpt>
   <trkpt lon="20.058106" lat="49.486701"><ele>577.5</ele></trkpt>
   <trkpt lon="20.058349" lat="49.486778"><ele>577.0</ele></trkpt>
   <trkpt lon="20.059320" lat="49.487115"><ele>577.25</ele></trkpt>
   <trkpt lon="20.060042" lat="49.487359"><ele>576.5</ele></trkpt>
   <trkpt lon="20.060761" lat="49.487555"><ele>576.75</ele></trkpt>
   <trkpt lon="20.061243" lat="49.487630"><ele>576.0</ele></trkpt>
   <trkpt lon="20.061562" lat="49.487594"><ele>576.25</ele></trkpt>
   <trkpt lon="20.061912" lat="49.487488"><ele>577.75</ele></trkpt>
   <trkpt lon="20.062070" lat="49.487427"><ele>576.75</ele></trkpt>
   <trkpt lon="20.062354" lat="49.487268"><ele>576.25</ele></trkpt>
   <trkpt lon="20.062468" lat="49.487193"><ele>576.75</ele></trkpt>
   <trkpt lon="20.062555" lat="49.487078"><ele>576.25</ele></trkpt>
   <trkpt lon="20.062637" lat="49.487030"><ele>576.25</ele></trkpt>
   <trkpt lon="20.062924" lat="49.487027"><ele>576.5</ele></trkpt>
   <trkpt lon="20.063447" lat="49.487275"><ele>576.75</ele></trkpt>
   <trkpt lon="20.063998" lat="49.487464"><ele>576.0</ele></trkpt>
   <trkpt lon="20.064583" lat="49.487700"><ele>575.25</ele></trkpt>
   <trkpt lon="20.065425" lat="49.487596"><ele>575.0</ele></trkpt>
   <trkpt lon="20.065618" lat="49.487584"><ele>575.0</ele></trkpt>
   <trkpt lon="20.066173" lat="49.487492"><ele>574.75</ele></trkpt>
   <trkpt lon="20.066825" lat="49.487374"><ele>573.75</ele></trkpt>
   <trkpt lon="20.067418" lat="49.487222"><ele>574.25</ele></trkpt>
   <trkpt lon="20.067872" lat="49.487086"><ele>573.75</ele></trkpt>
   <trkpt lon="20.068177" lat="49.486982"><ele>574.0</ele></trkpt>
   <trkpt lon="20.069357" lat="49.486646"><ele>573.25</ele></trkpt>
   <trkpt lon="20.069649" lat="49.486548"><ele>573.0</ele></trkpt>
   <trkpt lon="20.070206" lat="49.486343"><ele>572.75</ele></trkpt>
   <trkpt lon="20.070424" lat="49.486250"><ele>573.0</ele></trkpt>
   <trkpt lon="20.070756" lat="49.486123"><ele>573.75</ele></trkpt>
   <trkpt lon="20.071541" lat="49.485889"><ele>573.5</ele></trkpt>
   <trkpt lon="20.071641" lat="49.485855"><ele>573.75</ele></trkpt>
   <trkpt lon="20.071863" lat="49.485813"><ele>573.25</ele></trkpt>
   <trkpt lon="20.072047" lat="49.485762"><ele>572.75</ele></trkpt>
   <trkpt lon="20.072394" lat="49.485611"><ele>573.0</ele></trkpt>
   <trkpt lon="20.072520" lat="49.485585"><ele>572.75</ele></trkpt>
   <trkpt lon="20.072759" lat="49.485548"><ele>573.0</ele></trkpt>
   <trkpt lon="20.072940" lat="49.485500"><ele>572.5</ele></trkpt>
   <trkpt lon="20.073075" lat="49.485443"><ele>572.25</ele></trkpt>
   <trkpt lon="20.073206" lat="49.485373"><ele>572.5</ele></trkpt>
   <trkpt lon="20.073445" lat="49.485281"><ele>572.5</ele></trkpt>
   <trkpt lon="20.073597" lat="49.485242"><ele>572.25</ele></trkpt>
   <trkpt lon="20.073756" lat="49.485193"><ele>572.5</ele></trkpt>
   <trkpt lon="20.073892" lat="49.485160"><ele>572.75</ele></trkpt>
   <trkpt lon="20.074107" lat="49.485134"><ele>572.5</ele></trkpt>
   <trkpt lon="20.075161" lat="49.484870"><ele>571.75</ele></trkpt>
   <trkpt lon="20.075759" lat="49.484685"><ele>571.25</ele></trkpt>
   <trkpt lon="20.075983" lat="49.484627"><ele>571.5</ele></trkpt>
   <trkpt lon="20.076315" lat="49.484525"><ele>572.25</ele></trkpt>
   <trkpt lon="20.076985" lat="49.484316"><ele>572.25</ele></trkpt>
   <trkpt lon="20.077197" lat="49.484241"><ele>572.25</ele></trkpt>
   <trkpt lon="20.077877" lat="49.483958"><ele>572.0</ele></trkpt>
   <trkpt lon="20.077963" lat="49.483919"><ele>572.0</ele></trkpt>
   <trkpt lon="20.078441" lat="49.483696"><ele>572.25</ele></trkpt>
   <trkpt lon="20.079005" lat="49.483339"><ele>571.75</ele></trkpt>
   <trkpt lon="20.079241" lat="49.483165"><ele>572.5</ele></trkpt>
   <trkpt lon="20.079560" lat="49.482957"><ele>573.5</ele></trkpt>
   <trkpt lon="20.080073" lat="49.482637"><ele>571.5</ele></trkpt>
   <trkpt lon="20.080502" lat="49.482381"><ele>571.5</ele></trkpt>
   <trkpt lon="20.080838" lat="49.482168"><ele>571.75</ele></trkpt>
   <trkpt lon="20.081162" lat="49.481949"><ele>571.75</ele></trkpt>
   <trkpt lon="20.081893" lat="49.481418"><ele>570.75</ele></trkpt>
   <trkpt lon="20.082149" lat="49.481216"><ele>570.5</ele></trkpt>
   <trkpt lon="20.082408" lat="49.480982"><ele>570.25</ele></trkpt>
   <trkpt lon="20.082512" lat="49.480902"><ele>570.25</ele></trkpt>
   <trkpt lon="20.082848" lat="49.480723"><ele>570.0</ele></trkpt>
   <trkpt lon="20.083277" lat="49.480454"><ele>569.25</ele></trkpt>
   <trkpt lon="20.083819" lat="49.480076"><ele>570.25</ele></trkpt>
   <trkpt lon="20.084081" lat="49.479959"><ele>570.25</ele></trkpt>
   <trkpt lon="20.084286" lat="49.479903"><ele>570.25</ele></trkpt>
   <trkpt lon="20.084743" lat="49.479820"><ele>570.25</ele></trkpt>
   <trkpt lon="20.085182" lat="49.479788"><ele>569.75</ele></trkpt>
   <trkpt lon="20.085580" lat="49.479785"><ele>569.5</ele></trkpt>
   <trkpt lon="20.086306" lat="49.479769"><ele>569.5</ele></trkpt>
   <trkpt lon="20.086974" lat="49.479922"><ele>569.25</ele></trkpt>
   <trkpt lon="20.087648" lat="49.480103"><ele>569.5</ele></trkpt>
   <trkpt lon="20.087837" lat="49.480157"><ele>569.75</ele></trkpt>
   <trkpt lon="20.088619" lat="49.480432"><ele>569.25</ele></trkpt>
   <trkpt lon="20.088941" lat="49.480488"><ele>570.0</ele></trkpt>
   <trkpt lon="20.088980" lat="49.480567"><ele>569.75</ele></trkpt>
   <trkpt lon="20.089286" lat="49.480742"><ele>568.75</ele></trkpt>
   <trkpt lon="20.089576" lat="49.480891"><ele>568.75</ele></trkpt>
   <trkpt lon="20.089822" lat="49.481038"><ele>568.0</ele></trkpt>
   <trkpt lon="20.090052" lat="49.481163"><ele>568.25</ele></trkpt>
   <trkpt lon="20.090207" lat="49.481218"><ele>567.75</ele></trkpt>
   <trkpt lon="20.090337" lat="49.481251"><ele>567.25</ele></trkpt>
   <trkpt lon="20.090443" lat="49.481265"><ele>567.0</ele></trkpt>
   <trkpt lon="20.090887" lat="49.481315"><ele>568.0</ele></trkpt>
   <trkpt lon="20.091212" lat="49.481330"><ele>568.0</ele></trkpt>
   <trkpt lon="20.092181" lat="49.481348"><ele>568.0</ele></trkpt>
   <trkpt lon="20.092662" lat="49.481317"><ele>567.75</ele></trkpt>
   <trkpt lon="20.092866" lat="49.481264"><ele>567.75</ele></trkpt>
   <trkpt lon="20.093091" lat="49.481182"><ele>568.25</ele></trkpt>
   <trkpt lon="20.093269" lat="49.481130"><ele>568.0</ele></trkpt>
   <trkpt lon="20.093679" lat="49.481031"><ele>568.0</ele></trkpt>
   <trkpt lon="20.094612" lat="49.480834"><ele>567.75</ele></trkpt>
   <trkpt lon="20.094966" lat="49.480751"><ele>566.75</ele></trkpt>
   <trkpt lon="20.095180" lat="49.480709"><ele>566.75</ele></trkpt>
   <trkpt lon="20.095275" lat="49.480683"><ele>567.0</ele></trkpt>
   <trkpt lon="20.095765" lat="49.480585"><ele>567.5</ele></trkpt>
   <trkpt lon="20.096083" lat="49.480512"><ele>567.0</ele></trkpt>
   <trkpt lon="20.096469" lat="49.480439"><ele>566.75</ele></trkpt>
   <trkpt lon="20.096896" lat="49.480390"><ele>566.75</ele></trkpt>
   <trkpt lon="20.098306" lat="49.480273"><ele>567.0</ele></trkpt>
   <trkpt lon="20.099117" lat="49.480188"><ele>565.75</ele></trkpt>
   <trkpt lon="20.099473" lat="49.480160"><ele>565.75</ele></trkpt>
   <trkpt lon="20.099744" lat="49.480122"><ele>566.0</ele></trkpt>
   <trkpt lon="20.100017" lat="49.480064"><ele>566.5</ele></trkpt>
   <trkpt lon="20.100147" lat="49.480014"><ele>567.25</ele></trkpt>
   <trkpt lon="20.100284" lat="49.479928"><ele>567.5</ele></trkpt>
   <trkpt lon="20.100328" lat="49.479975"><ele>567.25</ele></trkpt>
   <trkpt lon="20.100948" lat="49.480511"><ele>566.25</ele></trkpt>
   <trkpt lon="20.101001" lat="49.480560"><ele>567.25</ele></trkpt>
   <trkpt lon="20.101253" lat="49.480553"><ele>567.75</ele></trkpt>
   <trkpt lon="20.101537" lat="49.480356"><ele>565.75</ele></trkpt>
   <trkpt lon="20.102389" lat="49.480035"><ele>565.75</ele></trkpt>
   <trkpt lon="20.103611" lat="49.479509"><ele>565.75</ele></trkpt>
   <trkpt lon="20.104717" lat="49.479013"><ele>564.75</ele></trkpt>
   <trkpt lon="20.105646" lat="49.478609"><ele>564.75</ele></trkpt>
   <trkpt lon="20.106386" lat="49.478375"><ele>565.0</ele></trkpt>
   <trkpt lon="20.106812" lat="49.478237"><ele>565.0</ele></trkpt>
   <trkpt lon="20.107022" lat="49.478179"><ele>565.0</ele></trkpt>
   <trkpt lon="20.107153" lat="49.478166"><ele>565.0</ele></trkpt>
   <trkpt lon="20.107185" lat="49.478086"><ele>565.0</ele></trkpt>
   <trkpt lon="20.107258" lat="49.478053"><ele>564.75</ele></trkpt>
   <trkpt lon="20.107593" lat="49.477954"><ele>565.0</ele></trkpt>
   <trkpt lon="20.108433" lat="49.477757"><ele>564.5</ele></trkpt>
   <trkpt lon="20.109047" lat="49.477629"><ele>564.25</ele></trkpt>
   <trkpt lon="20.109469" lat="49.477516"><ele>564.75</ele></trkpt>
   <trkpt lon="20.109602" lat="49.477473"><ele>564.25</ele></trkpt>
   <trkpt lon="20.109755" lat="49.477445"><ele>563.75</ele></trkpt>
   <trkpt lon="20.109821" lat="49.477432"><ele>564.0</ele></trkpt>
   <trkpt lon="20.110336" lat="49.477284"><ele>564.0</ele></trkpt>
   <trkpt lon="20.110958" lat="49.477181"><ele>563.5</ele></trkpt>
   <trkpt lon="20.111817" lat="49.477085"><ele>563.0</ele></trkpt>
   <trkpt lon="20.112391" lat="49.477060"><ele>563.25</ele></trkpt>
   <trkpt lon="20.113341" lat="49.476961"><ele>563.0</ele></trkpt>
   <trkpt lon="20.113802" lat="49.476963"><ele>563.0</ele></trkpt>
   <trkpt lon="20.114875" lat="49.477046"><ele>562.25</ele></trkpt>
   <trkpt lon="20.115201" lat="49.477084"><ele>562.5</ele></trkpt>
   <trkpt lon="20.115432" lat="49.477117"><ele>562.25</ele></trkpt>
   <trkpt lon="20.115901" lat="49.477210"><ele>562.75</ele></trkpt>
   <trkpt lon="20.116318" lat="49.477269"><ele>563.0</ele></trkpt>
   <trkpt lon="20.116606" lat="49.477346"><ele>562.5</ele></trkpt>
   <trkpt lon="20.116992" lat="49.477488"><ele>562.75</ele></trkpt>
   <trkpt lon="20.117287" lat="49.477559"><ele>562.0</ele></trkpt>
   <trkpt lon="20.117957" lat="49.477596"><ele>562.0</ele></trkpt>
   <trkpt lon="20.118396" lat="49.477687"><ele>561.5</ele></trkpt>
   <trkpt lon="20.118807" lat="49.477822"><ele>562.0</ele></trkpt>
   <trkpt lon="20.119105" lat="49.477934"><ele>561.5</ele></trkpt>
   <trkpt lon="20.119271" lat="49.478005"><ele>561.75</ele></trkpt>
   <trkpt lon="20.119380" lat="49.478079"><ele>562.0</ele></trkpt>
   <trkpt lon="20.119607" lat="49.478292"><ele>562.0</ele></trkpt>
   <trkpt lon="20.119807" lat="49.478373"><ele>562.0</ele></trkpt>
   <trkpt lon="20.119992" lat="49.478463"><ele>562.0</ele></trkpt>
   <trkpt lon="20.120133" lat="49.478647"><ele>562.0</ele></trkpt>
   <trkpt lon="20.120225" lat="49.478846"><ele>562.0</ele></trkpt>
   <trkpt lon="20.120372" lat="49.478869"><ele>561.75</ele></trkpt>
   <trkpt lon="20.120570" lat="49.478910"><ele>561.75</ele></trkpt>
   <trkpt lon="20.120754" lat="49.478956"><ele>561.25</ele></trkpt>
   <trkpt lon="20.120915" lat="49.479056"><ele>561.0</ele></trkpt>
   <trkpt lon="20.121193" lat="49.479249"><ele>561.0</ele></trkpt>
   <trkpt lon="20.121375" lat="49.479348"><ele>561.5</ele></trkpt>
   <trkpt lon="20.121609" lat="49.479417"><ele>561.75</ele></trkpt>
   <trkpt lon="20.121744" lat="49.479444"><ele>561.75</ele></trkpt>
   <trkpt lon="20.121861" lat="49.479461"><ele>562.25</ele></trkpt>
   <trkpt lon="20.122177" lat="49.479482"><ele>563.0</ele></trkpt>
   <trkpt lon="20.122550" lat="49.479491"><ele>564.5</ele></trkpt>
   <trkpt lon="20.123206" lat="49.479472"><ele>566.0</ele></trkpt>
   <trkpt lon="20.123896" lat="49.479343"><ele>565.25</ele></trkpt>
   <trkpt lon="20.124104" lat="49.479292"><ele>566.0</ele></trkpt>
   <trkpt lon="20.124395" lat="49.479201"><ele>566.5</ele></trkpt>
   <trkpt lon="20.124515" lat="49.479152"><ele>567.0</ele></trkpt>
   <trkpt lon="20.124788" lat="49.478992"><ele>565.0</ele></trkpt>
   <trkpt lon="20.125384" lat="49.478736"><ele>564.25</ele></trkpt>
   <trkpt lon="20.126259" lat="49.478397"><ele>563.0</ele></trkpt>
   <trkpt lon="20.126547" lat="49.478247"><ele>562.75</ele></trkpt>
   <trkpt lon="20.126874" lat="49.478048"><ele>561.75</ele></trkpt>
   <trkpt lon="20.127352" lat="49.477788"><ele>561.75</ele></trkpt>
   <trkpt lon="20.127504" lat="49.477686"><ele>562.0</ele></trkpt>
   <trkpt lon="20.127894" lat="49.477363"><ele>563.75</ele></trkpt>
   <trkpt lon="20.128002" lat="49.477292"><ele>563.25</ele></trkpt>
   <trkpt lon="20.128191" lat="49.477185"><ele>563.25</ele></trkpt>
   <trkpt lon="20.128297" lat="49.477103"><ele>563.75</ele></trkpt>
   <trkpt lon="20.128368" lat="49.477019"><ele>563.5</ele></trkpt>
   <trkpt lon="20.128520" lat="49.476917"><ele>564.25</ele></trkpt>
   <trkpt lon="20.128982" lat="49.476460"><ele>562.75</ele></trkpt>
   <trkpt lon="20.129299" lat="49.476118"><ele>560.5</ele></trkpt>
   <trkpt lon="20.129368" lat="49.476068"><ele>560.5</ele></trkpt>
   <trkpt lon="20.129469" lat="49.476007"><ele>560.5</ele></trkpt>
   <trkpt lon="20.129557" lat="49.475985"><ele>560.25</ele></trkpt>
   <trkpt lon="20.129804" lat="49.475985"><ele>560.5</ele></trkpt>
   <trkpt lon="20.129935" lat="49.475975"><ele>560.75</ele></trkpt>
   <trkpt lon="20.130131" lat="49.475929"><ele>561.25</ele></trkpt>
   <trkpt lon="20.130741" lat="49.475868"><ele>562.5</ele></trkpt>
   <trkpt lon="20.130887" lat="49.475863"><ele>563.0</ele></trkpt>
   <trkpt lon="20.131098" lat="49.475840"><ele>563.0</ele></trkpt>
   <trkpt lon="20.131131" lat="49.475851"><ele>563.0</ele></trkpt>
   <trkpt lon="20.131156" lat="49.475859"><ele>563.0</ele></trkpt>
   <trkpt lon="20.131519" lat="49.476067"><ele>564.0</ele></trkpt>
   <trkpt lon="20.131736" lat="49.476228"><ele>565.0</ele></trkpt>
   <trkpt lon="20.131953" lat="49.476362"><ele>564.75</ele></trkpt>
   <trkpt lon="20.131998" lat="49.476375"><ele>564.75</ele></trkpt>
   <trkpt lon="20.132042" lat="49.476380"><ele>564.75</ele></trkpt>
   <trkpt lon="20.132101" lat="49.476372"><ele>564.75</ele></trkpt>
   <trkpt lon="20.132256" lat="49.476329"><ele>564.75</ele></trkpt>
   <trkpt lon="20.132359" lat="49.476297"><ele>564.75</ele></trkpt>
   <trkpt lon="20.132426" lat="49.476281"><ele>564.75</ele></trkpt>
   <trkpt lon="20.132512" lat="49.476277"><ele>565.0</ele></trkpt>
   <trkpt lon="20.132555" lat="49.476283"><ele>565.0</ele></trkpt>
   <trkpt lon="20.132623" lat="49.476309"><ele>565.25</ele></trkpt>
   <trkpt lon="20.132920" lat="49.476460"><ele>566.0</ele></trkpt>
   <trkpt lon="20.133212" lat="49.476625"><ele>566.25</ele></trkpt>
   <trkpt lon="20.133442" lat="49.476816"><ele>567.5</ele></trkpt>
   <trkpt lon="20.133467" lat="49.476838"><ele>567.75</ele></trkpt>
   <trkpt lon="20.133492" lat="49.476851"><ele>567.75</ele></trkpt>
   <trkpt lon="20.133545" lat="49.476877"><ele>567.75</ele></trkpt>
   <trkpt lon="20.133718" lat="49.476933"><ele>568.25</ele></trkpt>
   <trkpt lon="20.133813" lat="49.476955"><ele>568.75</ele></trkpt>
   <trkpt lon="20.133718" lat="49.476933"><ele>568.25</ele></trkpt>
   <trkpt lon="20.133545" lat="49.476877"><ele>567.75</ele></trkpt>
   <trkpt lon="20.133492" lat="49.476851"><ele>567.75</ele></trkpt>
   <trkpt lon="20.133467" lat="49.476838"><ele>567.75</ele></trkpt>
   <trkpt lon="20.133442" lat="49.476816"><ele>567.5</ele></trkpt>
   <trkpt lon="20.133212" lat="49.476625"><ele>566.25</ele></trkpt>
   <trkpt lon="20.132920" lat="49.476460"><ele>566.0</ele></trkpt>
   <trkpt lon="20.132623" lat="49.476309"><ele>565.25</ele></trkpt>
   <trkpt lon="20.132555" lat="49.476283"><ele>565.0</ele></trkpt>
   <trkpt lon="20.132512" lat="49.476277"><ele>565.0</ele></trkpt>
   <trkpt lon="20.132426" lat="49.476281"><ele>564.75</ele></trkpt>
   <trkpt lon="20.132386" lat="49.476229"><ele>564.75</ele></trkpt>
   <trkpt lon="20.132217" lat="49.476026"><ele>564.0</ele></trkpt>
   <trkpt lon="20.132074" lat="49.475864"><ele>563.5</ele></trkpt>
   <trkpt lon="20.131738" lat="49.475429"><ele>562.25</ele></trkpt>
   <trkpt lon="20.131627" lat="49.475261"><ele>561.75</ele></trkpt>
   <trkpt lon="20.131499" lat="49.475025"><ele>561.75</ele></trkpt>
   <trkpt lon="20.131431" lat="49.474918"><ele>562.25</ele></trkpt>
   <trkpt lon="20.131309" lat="49.474771"><ele>562.0</ele></trkpt>
   <trkpt lon="20.131246" lat="49.474691"><ele>561.25</ele></trkpt>
   <trkpt lon="20.130518" lat="49.473980"><ele>560.0</ele></trkpt>
   <trkpt lon="20.130442" lat="49.473915"><ele>561.0</ele></trkpt>
   <trkpt lon="20.130260" lat="49.473810"><ele>561.5</ele></trkpt>
   <trkpt lon="20.130166" lat="49.473765"><ele>561.25</ele></trkpt>
   <trkpt lon="20.130067" lat="49.473727"><ele>561.0</ele></trkpt>
   <trkpt lon="20.129926" lat="49.473678"><ele>561.5</ele></trkpt>
   <trkpt lon="20.129590" lat="49.473561"><ele>561.75</ele></trkpt>
   <trkpt lon="20.129519" lat="49.473348"><ele>561.5</ele></trkpt>
   <trkpt lon="20.129486" lat="49.473234"><ele>561.75</ele></trkpt>
   <trkpt lon="20.129537" lat="49.472800"><ele>562.75</ele></trkpt>
   <trkpt lon="20.129562" lat="49.472732"><ele>563.0</ele></trkpt>
   <trkpt lon="20.130340" lat="49.472031"><ele>564.25</ele></trkpt>
   <trkpt lon="20.130904" lat="49.471621"><ele>564.75</ele></trkpt>
   <trkpt lon="20.131159" lat="49.471391"><ele>564.75</ele></trkpt>
   <trkpt lon="20.131654" lat="49.471093"><ele>565.0</ele></trkpt>
   <trkpt lon="20.131740" lat="49.471015"><ele>565.0</ele></trkpt>
   <trkpt lon="20.131776" lat="49.470938"><ele>565.25</ele></trkpt>
   <trkpt lon="20.131773" lat="49.470820"><ele>566.0</ele></trkpt>
   <trkpt lon="20.131754" lat="49.470698"><ele>566.0</ele></trkpt>
   <trkpt lon="20.131742" lat="49.470664"><ele>566.0</ele></trkpt>
   <trkpt lon="20.131970" lat="49.470634"><ele>566.0</ele></trkpt>
   <trkpt lon="20.131963" lat="49.470604"><ele>566.0</ele></trkpt>
   <trkpt lon="20.131999" lat="49.470345"><ele>566.75</ele></trkpt>
   <trkpt lon="20.132019" lat="49.469600"><ele>568.25</ele></trkpt>
   <trkpt lon="20.132051" lat="49.468988"><ele>569.0</ele></trkpt>
   <trkpt lon="20.132104" lat="49.467919"><ele>570.0</ele></trkpt>
   <trkpt lon="20.132120" lat="49.467083"><ele>571.25</ele></trkpt>
   <trkpt lon="20.132446" lat="49.464283"><ele>576.0</ele></trkpt>
   <trkpt lon="20.132523" lat="49.463002"><ele>577.75</ele></trkpt>
   <trkpt lon="20.132597" lat="49.462715"><ele>578.0</ele></trkpt>
   <trkpt lon="20.132847" lat="49.462261"><ele>578.5</ele></trkpt>
   <trkpt lon="20.132960" lat="49.462009"><ele>578.75</ele></trkpt>
   <trkpt lon="20.133039" lat="49.461778"><ele>579.0</ele></trkpt>
   <trkpt lon="20.133097" lat="49.461302"><ele>579.75</ele></trkpt>
   <trkpt lon="20.133151" lat="49.461053"><ele>580.0</ele></trkpt>
   <trkpt lon="20.133102" lat="49.461046"><ele>580.0</ele></trkpt>
   <trkpt lon="20.133015" lat="49.461012"><ele>580.0</ele></trkpt>
   <trkpt lon="20.132959" lat="49.460959"><ele>580.0</ele></trkpt>
   <trkpt lon="20.132945" lat="49.460927"><ele>580.0</ele></trkpt>
   <trkpt lon="20.132942" lat="49.460894"><ele>580.0</ele></trkpt>
   <trkpt lon="20.132969" lat="49.460831"><ele>580.0</ele></trkpt>
   <trkpt lon="20.132997" lat="49.460804"><ele>580.0</ele></trkpt>
   <trkpt lon="20.133077" lat="49.460765"><ele>580.0</ele></trkpt>
   <trkpt lon="20.133124" lat="49.460754"><ele>580.0</ele></trkpt>
   <trkpt lon="20.133175" lat="49.460751"><ele>580.0</ele></trkpt>
   <trkpt lon="20.133216" lat="49.460512"><ele>580.0</ele></trkpt>
   <trkpt lon="20.133290" lat="49.460178"><ele>581.0</ele></trkpt>
   <trkpt lon="20.133638" lat="49.459351"><ele>582.0</ele></trkpt>
   <trkpt lon="20.133803" lat="49.458856"><ele>583.0</ele></trkpt>
   <trkpt lon="20.133927" lat="49.458711"><ele>583.0</ele></trkpt>
   <trkpt lon="20.134335" lat="49.458233"><ele>583.0</ele></trkpt>
   <trkpt lon="20.135023" lat="49.457463"><ele>584.0</ele></trkpt>
   <trkpt lon="20.136168" lat="49.455556"><ele>586.75</ele></trkpt>
   <trkpt lon="20.136461" lat="49.455153"><ele>586.75</ele></trkpt>
   <trkpt lon="20.136751" lat="49.454638"><ele>587.25</ele></trkpt>
   <trkpt lon="20.137030" lat="49.454144"><ele>588.0</ele></trkpt>
   <trkpt lon="20.137488" lat="49.453558"><ele>589.0</ele></trkpt>
   <trkpt lon="20.137795" lat="49.453120"><ele>588.75</ele></trkpt>
   <trkpt lon="20.138500" lat="49.451436"><ele>592.0</ele></trkpt>
   <trkpt lon="20.138845" lat="49.450478"><ele>593.75</ele></trkpt>
   <trkpt lon="20.139101" lat="49.449433"><ele>595.0</ele></trkpt>
   <trkpt lon="20.139202" lat="49.449117"><ele>595.75</ele></trkpt>
   <trkpt lon="20.140293" lat="49.446830"><ele>598.25</ele></trkpt>
   <trkpt lon="20.141168" lat="49.444530"><ele>601.0</ele></trkpt>
   <trkpt lon="20.142008" lat="49.442620"><ele>603.0</ele></trkpt>
   <trkpt lon="20.142238" lat="49.442101"><ele>604.0</ele></trkpt>
   <trkpt lon="20.142302" lat="49.441988"><ele>604.0</ele></trkpt>
   <trkpt lon="20.142484" lat="49.441796"><ele>604.0</ele></trkpt>
   <trkpt lon="20.142680" lat="49.441647"><ele>604.0</ele></trkpt>
   <trkpt lon="20.143899" lat="49.440855"><ele>604.0</ele></trkpt>
   <trkpt lon="20.144021" lat="49.440770"><ele>604.0</ele></trkpt>
   <trkpt lon="20.143899" lat="49.440855"><ele>604.0</ele></trkpt>
   <trkpt lon="20.142680" lat="49.441647"><ele>604.0</ele></trkpt>
   <trkpt lon="20.142648" lat="49.441629"><ele>604.0</ele></trkpt>
   <trkpt lon="20.142611" lat="49.441607"><ele>604.0</ele></trkpt>
   <trkpt lon="20.142462" lat="49.441639"><ele>604.0</ele></trkpt>
   <trkpt lon="20.139753" lat="49.441988"><ele>605.0</ele></trkpt>
   <trkpt lon="20.138972" lat="49.441998"><ele>605.75</ele></trkpt>
   <trkpt lon="20.137810" lat="49.442125"><ele>606.0</ele></trkpt>
   <trkpt lon="20.137256" lat="49.442135"><ele>606.25</ele></trkpt>
   <trkpt lon="20.136499" lat="49.442166"><ele>606.0</ele></trkpt>
   <trkpt lon="20.135982" lat="49.442238"><ele>605.75</ele></trkpt>
   <trkpt lon="20.135368" lat="49.442353"><ele>606.0</ele></trkpt>
   <trkpt lon="20.134937" lat="49.442397"><ele>606.0</ele></trkpt>
   <trkpt lon="20.134061" lat="49.442501"><ele>606.0</ele></trkpt>
   <trkpt lon="20.133221" lat="49.442664"><ele>606.0</ele></trkpt>
   <trkpt lon="20.132329" lat="49.442791"><ele>605.25</ele></trkpt>
   <trkpt lon="20.132203" lat="49.442796"><ele>605.0</ele></trkpt>
   <trkpt lon="20.131652" lat="49.442818"><ele>605.75</ele></trkpt>
   <trkpt lon="20.131096" lat="49.442788"><ele>605.0</ele></trkpt>
   <trkpt lon="20.130414" lat="49.442888"><ele>605.25</ele></trkpt>
   <trkpt lon="20.129793" lat="49.442928"><ele>605.25</ele></trkpt>
   <trkpt lon="20.129284" lat="49.443031"><ele>605.0</ele></trkpt>
   <trkpt lon="20.128112" lat="49.443073"><ele>604.75</ele></trkpt>
   <trkpt lon="20.127575" lat="49.443146"><ele>604.0</ele></trkpt>
   <trkpt lon="20.127057" lat="49.443107"><ele>603.75</ele></trkpt>
   <trkpt lon="20.126524" lat="49.443165"><ele>603.75</ele></trkpt>
   <trkpt lon="20.125833" lat="49.443267"><ele>603.75</ele></trkpt>
   <trkpt lon="20.125338" lat="49.443243"><ele>603.25</ele></trkpt>
   <trkpt lon="20.124950" lat="49.443180"><ele>604.0</ele></trkpt>
   <trkpt lon="20.124513" lat="49.443006"><ele>604.0</ele></trkpt>
   <trkpt lon="20.124189" lat="49.442849"><ele>604.0</ele></trkpt>
   <trkpt lon="20.123750" lat="49.442776"><ele>604.5</ele></trkpt>
   <trkpt lon="20.123456" lat="49.442685"><ele>605.0</ele></trkpt>
   <trkpt lon="20.122970" lat="49.442603"><ele>605.0</ele></trkpt>
   <trkpt lon="20.122340" lat="49.442585"><ele>605.5</ele></trkpt>
   <trkpt lon="20.122074" lat="49.442512"><ele>605.75</ele></trkpt>
   <trkpt lon="20.121098" lat="49.441701"><ele>608.75</ele></trkpt>
   <trkpt lon="20.120757" lat="49.441346"><ele>610.0</ele></trkpt>
   <trkpt lon="20.120607" lat="49.441239"><ele>610.0</ele></trkpt>
   <trkpt lon="20.120397" lat="49.441191"><ele>610.0</ele></trkpt>
   <trkpt lon="20.119828" lat="49.441160"><ele>610.75</ele></trkpt>
   <trkpt lon="20.119342" lat="49.441085"><ele>612.0</ele></trkpt>
   <trkpt lon="20.118156" lat="49.440784"><ele>614.0</ele></trkpt>
   <trkpt lon="20.117236" lat="49.440580"><ele>616.0</ele></trkpt>
   <trkpt lon="20.116101" lat="49.440271"><ele>618.0</ele></trkpt>
   <trkpt lon="20.115209" lat="49.440110"><ele>618.5</ele></trkpt>
   <trkpt lon="20.113939" lat="49.439821"><ele>619.5</ele></trkpt>
   <trkpt lon="20.112995" lat="49.439733"><ele>619.0</ele></trkpt>
   <trkpt lon="20.112085" lat="49.439566"><ele>618.75</ele></trkpt>
   <trkpt lon="20.111734" lat="49.439536"><ele>618.5</ele></trkpt>
   <trkpt lon="20.111417" lat="49.439587"><ele>617.5</ele></trkpt>
   <trkpt lon="20.111151" lat="49.439676"><ele>617.0</ele></trkpt>
   <trkpt lon="20.110898" lat="49.439703"><ele>617.0</ele></trkpt>
   <trkpt lon="20.110479" lat="49.439623"><ele>617.0</ele></trkpt>
   <trkpt lon="20.110343" lat="49.439524"><ele>617.5</ele></trkpt>
   <trkpt lon="20.109731" lat="49.438929"><ele>619.0</ele></trkpt>
   <trkpt lon="20.109425" lat="49.438771"><ele>620.0</ele></trkpt>
   <trkpt lon="20.109255" lat="49.438666"><ele>620.0</ele></trkpt>
   <trkpt lon="20.109062" lat="49.438566"><ele>620.25</ele></trkpt>
   <trkpt lon="20.108652" lat="49.438389"><ele>621.5</ele></trkpt>
   <trkpt lon="20.108558" lat="49.438333"><ele>622.0</ele></trkpt>
   <trkpt lon="20.108369" lat="49.438241"><ele>622.25</ele></trkpt>
   <trkpt lon="20.108207" lat="49.438134"><ele>622.75</ele></trkpt>
   <trkpt lon="20.108050" lat="49.438055"><ele>623.0</ele></trkpt>
   <trkpt lon="20.107869" lat="49.438017"><ele>623.0</ele></trkpt>
   <trkpt lon="20.107558" lat="49.438022"><ele>623.75</ele></trkpt>
   <trkpt lon="20.106520" lat="49.438010"><ele>624.5</ele></trkpt>
   <trkpt lon="20.106107" lat="49.438014"><ele>625.0</ele></trkpt>
   <trkpt lon="20.104920" lat="49.438075"><ele>625.25</ele></trkpt>
   <trkpt lon="20.104116" lat="49.438125"><ele>625.5</ele></trkpt>
   <trkpt lon="20.103904" lat="49.438122"><ele>625.75</ele></trkpt>
   <trkpt lon="20.103161" lat="49.438043"><ele>627.0</ele></trkpt>
   <trkpt lon="20.102450" lat="49.437924"><ele>626.75</ele></trkpt>
   <trkpt lon="20.102018" lat="49.437885"><ele>626.75</ele></trkpt>
   <trkpt lon="20.101796" lat="49.437855"><ele>626.5</ele></trkpt>
   <trkpt lon="20.101308" lat="49.437776"><ele>626.5</ele></trkpt>
   <trkpt lon="20.100720" lat="49.437705"><ele>625.75</ele></trkpt>
   <trkpt lon="20.100626" lat="49.437714"><ele>625.25</ele></trkpt>
   <trkpt lon="20.100567" lat="49.437727"><ele>625.0</ele></trkpt>
   <trkpt lon="20.100533" lat="49.437770"><ele>624.75</ele></trkpt>
   <trkpt lon="20.100527" lat="49.437806"><ele>624.75</ele></trkpt>
   <trkpt lon="20.100660" lat="49.438074"><ele>624.25</ele></trkpt>
   <trkpt lon="20.100799" lat="49.438255"><ele>623.5</ele></trkpt>
   <trkpt lon="20.100963" lat="49.438502"><ele>622.5</ele></trkpt>
   <trkpt lon="20.101117" lat="49.438761"><ele>621.25</ele></trkpt>
   <trkpt lon="20.101318" lat="49.439069"><ele>619.5</ele></trkpt>
   <trkpt lon="20.101801" lat="49.439627"><ele>617.25</ele></trkpt>
   <trkpt lon="20.101790" lat="49.439679"><ele>617.0</ele></trkpt>
   <trkpt lon="20.101749" lat="49.439707"><ele>617.0</ele></trkpt>
   <trkpt lon="20.101211" lat="49.439886"><ele>617.25</ele></trkpt>
   <trkpt lon="20.100273" lat="49.440159"><ele>618.0</ele></trkpt>
   <trkpt lon="20.099605" lat="49.440317"><ele>617.25</ele></trkpt>
   <trkpt lon="20.099105" lat="49.440499"><ele>618.0</ele></trkpt>
   <trkpt lon="20.098716" lat="49.440581"><ele>618.75</ele></trkpt>
   <trkpt lon="20.098011" lat="49.440721"><ele>620.0</ele></trkpt>
   <trkpt lon="20.097667" lat="49.440788"><ele>620.0</ele></trkpt>
   <trkpt lon="20.095267" lat="49.441164"><ele>619.75</ele></trkpt>
   <trkpt lon="20.094160" lat="49.441319"><ele>618.0</ele></trkpt>
   <trkpt lon="20.093445" lat="49.441404"><ele>616.75</ele></trkpt>
   <trkpt lon="20.092228" lat="49.441573"><ele>615.0</ele></trkpt>
   <trkpt lon="20.091382" lat="49.441783"><ele>610.75</ele></trkpt>
   <trkpt lon="20.091056" lat="49.441819"><ele>610.25</ele></trkpt>
   <trkpt lon="20.090867" lat="49.441779"><ele>609.0</ele></trkpt>
   <trkpt lon="20.090670" lat="49.441724"><ele>608.5</ele></trkpt>
   <trkpt lon="20.090606" lat="49.441704"><ele>608.25</ele></trkpt>
   <trkpt lon="20.090534" lat="49.441682"><ele>608.0</ele></trkpt>
   <trkpt lon="20.090338" lat="49.441482"><ele>608.5</ele></trkpt>
   <trkpt lon="20.090286" lat="49.441453"><ele>608.75</ele></trkpt>
   <trkpt lon="20.090114" lat="49.441444"><ele>609.25</ele></trkpt>
   <trkpt lon="20.089856" lat="49.441469"><ele>609.75</ele></trkpt>
   <trkpt lon="20.089718" lat="49.441491"><ele>610.0</ele></trkpt>
   <trkpt lon="20.089611" lat="49.441509"><ele>610.0</ele></trkpt>
   <trkpt lon="20.089410" lat="49.441575"><ele>610.0</ele></trkpt>
   <trkpt lon="20.089269" lat="49.441674"><ele>609.75</ele></trkpt>
   <trkpt lon="20.089069" lat="49.441821"><ele>610.0</ele></trkpt>
   <trkpt lon="20.088554" lat="49.441877"><ele>610.0</ele></trkpt>
   <trkpt lon="20.088036" lat="49.441938"><ele>610.0</ele></trkpt>
   <trkpt lon="20.087966" lat="49.441930"><ele>610.0</ele></trkpt>
   <trkpt lon="20.087898" lat="49.441934"><ele>610.0</ele></trkpt>
   <trkpt lon="20.087641" lat="49.441958"><ele>610.0</ele></trkpt>
   <trkpt lon="20.086595" lat="49.442059"><ele>610.0</ele></trkpt>
   <trkpt lon="20.085853" lat="49.442177"><ele>610.0</ele></trkpt>
   <trkpt lon="20.085681" lat="49.442205"><ele>610.0</ele></trkpt>
   <trkpt lon="20.084886" lat="49.442331"><ele>610.5</ele></trkpt>
   <trkpt lon="20.084346" lat="49.442392"><ele>611.5</ele></trkpt>
   <trkpt lon="20.083756" lat="49.442459"><ele>614.0</ele></trkpt>
   <trkpt lon="20.083548" lat="49.442482"><ele>614.25</ele></trkpt>
   <trkpt lon="20.081951" lat="49.442700"><ele>615.25</ele></trkpt>
   <trkpt lon="20.081062" lat="49.442799"><ele>614.75</ele></trkpt>
   <trkpt lon="20.080398" lat="49.442887"><ele>611.75</ele></trkpt>
   <trkpt lon="20.079904" lat="49.442978"><ele>610.75</ele></trkpt>
   <trkpt lon="20.079844" lat="49.443196"><ele>610.5</ele></trkpt>
   <trkpt lon="20.079818" lat="49.443402"><ele>609.75</ele></trkpt>
   <trkpt lon="20.079778" lat="49.443485"><ele>609.25</ele></trkpt>
   <trkpt lon="20.079700" lat="49.443562"><ele>608.5</ele></trkpt>
   <trkpt lon="20.079598" lat="49.443587"><ele>609.0</ele></trkpt>
   <trkpt lon="20.079294" lat="49.443470"><ele>609.5</ele></trkpt>
   <trkpt lon="20.078996" lat="49.443211"><ele>609.75</ele></trkpt>
   <trkpt lon="20.078847" lat="49.443174"><ele>610.0</ele></trkpt>
   <trkpt lon="20.077460" lat="49.443326"><ele>612.0</ele></trkpt>
   <trkpt lon="20.075951" lat="49.443536"><ele>615.5</ele></trkpt>
   <trkpt lon="20.074719" lat="49.443681"><ele>618.0</ele></trkpt>
   <trkpt lon="20.073033" lat="49.443949"><ele>622.0</ele></trkpt>
   <trkpt lon="20.072799" lat="49.444024"><ele>622.25</ele></trkpt>
   <trkpt lon="20.072608" lat="49.444067"><ele>623.0</ele></trkpt>
   <trkpt lon="20.071734" lat="49.444182"><ele>625.0</ele></trkpt>
   <trkpt lon="20.070502" lat="49.444428"><ele>627.75</ele></trkpt>
   <trkpt lon="20.069960" lat="49.444568"><ele>629.0</ele></trkpt>
   <trkpt lon="20.069278" lat="49.444729"><ele>629.5</ele></trkpt>
   <trkpt lon="20.068601" lat="49.444866"><ele>630.0</ele></trkpt>
   <trkpt lon="20.068106" lat="49.444902"><ele>630.0</ele></trkpt>
   <trkpt lon="20.067658" lat="49.444908"><ele>630.25</ele></trkpt>
   <trkpt lon="20.066844" lat="49.444992"><ele>630.25</ele></trkpt>
   <trkpt lon="20.066318" lat="49.445074"><ele>630.5</ele></trkpt>
   <trkpt lon="20.065551" lat="49.445231"><ele>630.0</ele></trkpt>
   <trkpt lon="20.065102" lat="49.445393"><ele>630.75</ele></trkpt>
   <trkpt lon="20.065062" lat="49.445382"><ele>630.75</ele></trkpt>
   <trkpt lon="20.065035" lat="49.445375"><ele>630.75</ele></trkpt>
   <trkpt lon="20.064781" lat="49.444764"><ele>632.0</ele></trkpt>
   <trkpt lon="20.064573" lat="49.444152"><ele>633.0</ele></trkpt>
   <trkpt lon="20.064525" lat="49.444106"><ele>633.0</ele></trkpt>
   <trkpt lon="20.064448" lat="49.444101"><ele>633.0</ele></trkpt>
   <trkpt lon="20.063985" lat="49.444139"><ele>633.5</ele></trkpt>
   <trkpt lon="20.063718" lat="49.444108"><ele>634.0</ele></trkpt>
   <trkpt lon="20.063361" lat="49.444138"><ele>634.0</ele></trkpt>
   <trkpt lon="20.063141" lat="49.444193"><ele>633.75</ele></trkpt>
   <trkpt lon="20.062643" lat="49.444248"><ele>634.0</ele></trkpt>
   <trkpt lon="20.062258" lat="49.444307"><ele>634.0</ele></trkpt>
   <trkpt lon="20.061801" lat="49.444393"><ele>634.0</ele></trkpt>
   <trkpt lon="20.060180" lat="49.444770"><ele>631.75</ele></trkpt>
   <trkpt lon="20.060045" lat="49.444793"><ele>631.75</ele></trkpt>
   <trkpt lon="20.059664" lat="49.444796"><ele>632.0</ele></trkpt>
   <trkpt lon="20.059009" lat="49.444688"><ele>633.5</ele></trkpt>
   <trkpt lon="20.057156" lat="49.444456"><ele>635.0</ele></trkpt>
   <trkpt lon="20.055288" lat="49.444286"><ele>637.75</ele></trkpt>
   <trkpt lon="20.055158" lat="49.444305"><ele>638.25</ele></trkpt>
   <trkpt lon="20.054983" lat="49.444264"><ele>639.0</ele></trkpt>
   <trkpt lon="20.054775" lat="49.444261"><ele>639.0</ele></trkpt>
   <trkpt lon="20.054571" lat="49.444269"><ele>639.0</ele></trkpt>
   <trkpt lon="20.054341" lat="49.444261"><ele>639.0</ele></trkpt>
   <trkpt lon="20.054162" lat="49.444220"><ele>639.0</ele></trkpt>
   <trkpt lon="20.053983" lat="49.444120"><ele>639.0</ele></trkpt>
   <trkpt lon="20.053754" lat="49.443940"><ele>639.25</ele></trkpt>
   <trkpt lon="20.053251" lat="49.443307"><ele>640.25</ele></trkpt>
   <trkpt lon="20.052585" lat="49.442491"><ele>642.0</ele></trkpt>
   <trkpt lon="20.052499" lat="49.442409"><ele>642.0</ele></trkpt>
   <trkpt lon="20.052373" lat="49.442195"><ele>642.5</ele></trkpt>
   <trkpt lon="20.052126" lat="49.441890"><ele>643.0</ele></trkpt>
   <trkpt lon="20.051663" lat="49.441352"><ele>644.0</ele></trkpt>
   <trkpt lon="20.050308" lat="49.441763"><ele>643.5</ele></trkpt>
   <trkpt lon="20.049662" lat="49.442122"><ele>642.0</ele></trkpt>
   <trkpt lon="20.049104" lat="49.442411"><ele>640.75</ele></trkpt>
   <trkpt lon="20.048350" lat="49.442602"><ele>639.0</ele></trkpt>
   <trkpt lon="20.047744" lat="49.442704"><ele>638.0</ele></trkpt>
   <trkpt lon="20.047555" lat="49.442681"><ele>637.5</ele></trkpt>
   <trkpt lon="20.047576" lat="49.442123"><ele>639.25</ele></trkpt>
   <trkpt lon="20.047526" lat="49.441846"><ele>640.25</ele></trkpt>
   <trkpt lon="20.047418" lat="49.441804"><ele>640.0</ele></trkpt>
   <trkpt lon="20.047203" lat="49.441819"><ele>639.25</ele></trkpt>
   <trkpt lon="20.046820" lat="49.441871"><ele>639.0</ele></trkpt>
   <trkpt lon="20.046415" lat="49.441945"><ele>638.0</ele></trkpt>
   <trkpt lon="20.045854" lat="49.442009"><ele>637.0</ele></trkpt>
   <trkpt lon="20.045523" lat="49.441991"><ele>636.75</ele></trkpt>
   <trkpt lon="20.044837" lat="49.441636"><ele>635.0</ele></trkpt>
   <trkpt lon="20.044354" lat="49.441453"><ele>634.75</ele></trkpt>
   <trkpt lon="20.043908" lat="49.441240"><ele>635.5</ele></trkpt>
   <trkpt lon="20.043508" lat="49.440995"><ele>636.75</ele></trkpt>
   <trkpt lon="20.043330" lat="49.440923"><ele>637.5</ele></trkpt>
   <trkpt lon="20.043173" lat="49.440899"><ele>637.75</ele></trkpt>
   <trkpt lon="20.042808" lat="49.440890"><ele>638.5</ele></trkpt>
   <trkpt lon="20.042406" lat="49.440903"><ele>638.25</ele></trkpt>
   <trkpt lon="20.042053" lat="49.440990"><ele>637.5</ele></trkpt>
   <trkpt lon="20.041745" lat="49.441029"><ele>637.25</ele></trkpt>
   <trkpt lon="20.040767" lat="49.440921"><ele>635.75</ele></trkpt>
   <trkpt lon="20.039524" lat="49.440900"><ele>634.0</ele></trkpt>
   <trkpt lon="20.039402" lat="49.440953"><ele>633.25</ele></trkpt>
   <trkpt lon="20.039308" lat="49.440978"><ele>633.0</ele></trkpt>
   <trkpt lon="20.039148" lat="49.440984"><ele>632.75</ele></trkpt>
   <trkpt lon="20.038941" lat="49.440967"><ele>632.5</ele></trkpt>
   <trkpt lon="20.038753" lat="49.440922"><ele>632.25</ele></trkpt>
   <trkpt lon="20.038458" lat="49.440820"><ele>632.0</ele></trkpt>
   <trkpt lon="20.038181" lat="49.440788"><ele>632.5</ele></trkpt>
   <trkpt lon="20.037885" lat="49.440785"><ele>632.25</ele></trkpt>
   <trkpt lon="20.037676" lat="49.440806"><ele>632.0</ele></trkpt>
   <trkpt lon="20.036866" lat="49.440918"><ele>632.5</ele></trkpt>
   <trkpt lon="20.036745" lat="49.440950"><ele>632.75</ele></trkpt>
   <trkpt lon="20.036670" lat="49.441008"><ele>632.75</ele></trkpt>
   <trkpt lon="20.036513" lat="49.441068"><ele>633.0</ele></trkpt>
   <trkpt lon="20.036257" lat="49.441117"><ele>633.0</ele></trkpt>
   <trkpt lon="20.036096" lat="49.441121"><ele>633.0</ele></trkpt>
   <trkpt lon="20.035751" lat="49.441084"><ele>634.0</ele></trkpt>
   <trkpt lon="20.035374" lat="49.441039"><ele>634.5</ele></trkpt>
   <trkpt lon="20.034795" lat="49.440950"><ele>634.75</ele></trkpt>
   <trkpt lon="20.034589" lat="49.441035"><ele>635.0</ele></trkpt>
   <trkpt lon="20.034392" lat="49.441088"><ele>635.0</ele></trkpt>
   <trkpt lon="20.034294" lat="49.441099"><ele>635.0</ele></trkpt>
   <trkpt lon="20.034144" lat="49.441070"><ele>635.0</ele></trkpt>
   <trkpt lon="20.034007" lat="49.441022"><ele>635.0</ele></trkpt>
   <trkpt lon="20.032499" lat="49.440750"><ele>636.0</ele></trkpt>
   <trkpt lon="20.032342" lat="49.441073"><ele>636.0</ele></trkpt>
   <trkpt lon="20.032285" lat="49.441363"><ele>635.0</ele></trkpt>
   <trkpt lon="20.032339" lat="49.441591"><ele>635.0</ele></trkpt>
   <trkpt lon="20.032521" lat="49.441910"><ele>634.0</ele></trkpt>
   <trkpt lon="20.032575" lat="49.442253"><ele>634.0</ele></trkpt>
   <trkpt lon="20.032579" lat="49.442409"><ele>634.0</ele></trkpt>
   <trkpt lon="20.032417" lat="49.442617"><ele>634.0</ele></trkpt>
   <trkpt lon="20.032265" lat="49.442903"><ele>633.5</ele></trkpt>
   <trkpt lon="20.032227" lat="49.443046"><ele>633.0</ele></trkpt>
   <trkpt lon="20.032112" lat="49.443199"><ele>633.0</ele></trkpt>
   <trkpt lon="20.032080" lat="49.443305"><ele>633.0</ele></trkpt>
   <trkpt lon="20.032082" lat="49.443402"><ele>632.75</ele></trkpt>
   <trkpt lon="20.031995" lat="49.443593"><ele>632.0</ele></trkpt>
   <trkpt lon="20.031835" lat="49.443773"><ele>632.0</ele></trkpt>
   <trkpt lon="20.031571" lat="49.443870"><ele>632.0</ele></trkpt>
   <trkpt lon="20.031262" lat="49.444076"><ele>632.0</ele></trkpt>
   <trkpt lon="20.030981" lat="49.444348"><ele>631.25</ele></trkpt>
   <trkpt lon="20.030937" lat="49.444475"><ele>631.25</ele></trkpt>
   <trkpt lon="20.030764" lat="49.444710"><ele>630.0</ele></trkpt>
   <trkpt lon="20.030773" lat="49.444796"><ele>630.5</ele></trkpt>
   <trkpt lon="20.030767" lat="49.444859"><ele>630.5</ele></trkpt>
   <trkpt lon="20.030731" lat="49.444915"><ele>630.5</ele></trkpt>
   <trkpt lon="20.030592" lat="49.445048"><ele>631.0</ele></trkpt>
   <trkpt lon="20.030409" lat="49.445284"><ele>630.75</ele></trkpt>
   <trkpt lon="20.030249" lat="49.445414"><ele>630.25</ele></trkpt>
   <trkpt lon="20.030117" lat="49.445533"><ele>630.0</ele></trkpt>
   <trkpt lon="20.030022" lat="49.445710"><ele>630.0</ele></trkpt>
   <trkpt lon="20.029965" lat="49.445890"><ele>629.25</ele></trkpt>
   <trkpt lon="20.030001" lat="49.446065"><ele>629.0</ele></trkpt>
   <trkpt lon="20.030161" lat="49.446367"><ele>629.0</ele></trkpt>
   <trkpt lon="20.030214" lat="49.446555"><ele>628.5</ele></trkpt>
   <trkpt lon="20.030496" lat="49.446628"><ele>629.0</ele></trkpt>
   <trkpt lon="20.031146" lat="49.446580"><ele>629.0</ele></trkpt>
   <trkpt lon="20.032385" lat="49.446461"><ele>629.0</ele></trkpt>
   <trkpt lon="20.033469" lat="49.446489"><ele>628.5</ele></trkpt>
   <trkpt lon="20.034257" lat="49.446409"><ele>628.0</ele></trkpt>
   <trkpt lon="20.034455" lat="49.446430"><ele>627.75</ele></trkpt>
   <trkpt lon="20.034767" lat="49.446465"><ele>628.0</ele></trkpt>
   <trkpt lon="20.035083" lat="49.446430"><ele>627.75</ele></trkpt>
   <trkpt lon="20.036489" lat="49.446165"><ele>628.75</ele></trkpt>
   <trkpt lon="20.038034" lat="49.445955"><ele>628.5</ele></trkpt>
   <trkpt lon="20.039316" lat="49.445861"><ele>628.0</ele></trkpt>
   <trkpt lon="20.040861" lat="49.445725"><ele>627.0</ele></trkpt>
   <trkpt lon="20.041526" lat="49.445736"><ele>626.0</ele></trkpt>
   <trkpt lon="20.041703" lat="49.445844"><ele>626.0</ele></trkpt>
   <trkpt lon="20.041987" lat="49.446102"><ele>626.0</ele></trkpt>
   <trkpt lon="20.042229" lat="49.446381"><ele>625.0</ele></trkpt>
   <trkpt lon="20.042679" lat="49.447204"><ele>625.0</ele></trkpt>
   <trkpt lon="20.042755" lat="49.447280"><ele>624.75</ele></trkpt>
   <trkpt lon="20.043209" lat="49.447504"><ele>624.0</ele></trkpt>
   <trkpt lon="20.043855" lat="49.447961"><ele>623.25</ele></trkpt>
   <trkpt lon="20.044071" lat="49.448126"><ele>622.75</ele></trkpt>
   <trkpt lon="20.044287" lat="49.448371"><ele>622.75</ele></trkpt>
   <trkpt lon="20.044515" lat="49.448766"><ele>622.25</ele></trkpt>
   <trkpt lon="20.044781" lat="49.449186"><ele>621.75</ele></trkpt>
   <trkpt lon="20.045089" lat="49.449773"><ele>621.0</ele></trkpt>
   <trkpt lon="20.046037" lat="49.450919"><ele>619.75</ele></trkpt>
   <trkpt lon="20.046855" lat="49.451491"><ele>619.0</ele></trkpt>
   <trkpt lon="20.047210" lat="49.451728"><ele>618.75</ele></trkpt>
   <trkpt lon="20.047494" lat="49.452138"><ele>618.0</ele></trkpt>
   <trkpt lon="20.047810" lat="49.452634"><ele>617.5</ele></trkpt>
   <trkpt lon="20.047959" lat="49.453195"><ele>617.0</ele></trkpt>
   <trkpt lon="20.048058" lat="49.453398"><ele>617.0</ele></trkpt>
   <trkpt lon="20.048315" lat="49.453807"><ele>616.25</ele></trkpt>
   <trkpt lon="20.048400" lat="49.454370"><ele>616.0</ele></trkpt>
   <trkpt lon="20.048498" lat="49.454669"><ele>615.5</ele></trkpt>
   <trkpt lon="20.048533" lat="49.454888"><ele>615.0</ele></trkpt>
   <trkpt lon="20.048278" lat="49.454903"><ele>615.25</ele></trkpt>
   <trkpt lon="20.047786" lat="49.454845"><ele>615.5</ele></trkpt>
   <trkpt lon="20.047415" lat="49.454845"><ele>616.0</ele></trkpt>
   <trkpt lon="20.047289" lat="49.455253"><ele>615.75</ele></trkpt>
   <trkpt lon="20.047093" lat="49.455552"><ele>615.0</ele></trkpt>
   <trkpt lon="20.046258" lat="49.456375"><ele>616.0</ele></trkpt>
   <trkpt lon="20.045494" lat="49.457018"><ele>615.0</ele></trkpt>
   <trkpt lon="20.045320" lat="49.457630"><ele>614.0</ele></trkpt>
   <trkpt lon="20.045437" lat="49.457937"><ele>614.0</ele></trkpt>
   <trkpt lon="20.045585" lat="49.458077"><ele>613.75</ele></trkpt>
   <trkpt lon="20.045662" lat="49.458204"><ele>613.75</ele></trkpt>
   <trkpt lon="20.045853" lat="49.458887"><ele>612.0</ele></trkpt>
   <trkpt lon="20.046240" lat="49.460829"><ele>611.0</ele></trkpt>
   <trkpt lon="20.046390" lat="49.461525"><ele>610.5</ele></trkpt>
   <trkpt lon="20.046300" lat="49.461888"><ele>610.0</ele></trkpt>
   <trkpt lon="20.045984" lat="49.462138"><ele>609.5</ele></trkpt>
   <trkpt lon="20.044773" lat="49.462561"><ele>608.75</ele></trkpt>
   <trkpt lon="20.041897" lat="49.463502"><ele>610.0</ele></trkpt>
   <trkpt lon="20.041013" lat="49.463751"><ele>610.0</ele></trkpt>
   <trkpt lon="20.040743" lat="49.463895"><ele>609.75</ele></trkpt>
   <trkpt lon="20.039791" lat="49.465356"><ele>609.0</ele></trkpt>
   <trkpt lon="20.039711" lat="49.465427"><ele>609.0</ele></trkpt>
   <trkpt lon="20.039626" lat="49.465470"><ele>609.0</ele></trkpt>
   <trkpt lon="20.039365" lat="49.465583"><ele>609.0</ele></trkpt>
   <trkpt lon="20.039276" lat="49.465623"><ele>609.0</ele></trkpt>
   <trkpt lon="20.039287" lat="49.465660"><ele>609.25</ele></trkpt>
   <trkpt lon="20.039285" lat="49.465691"><ele>609.25</ele></trkpt>
   <trkpt lon="20.039274" lat="49.465728"><ele>609.5</ele></trkpt>
   <trkpt lon="20.039255" lat="49.465747"><ele>609.5</ele></trkpt>
   <trkpt lon="20.038940" lat="49.465837"><ele>609.0</ele></trkpt>
   <trkpt lon="20.038345" lat="49.466008"><ele>606.25</ele></trkpt>
   <trkpt lon="20.038136" lat="49.466121"><ele>606.0</ele></trkpt>
   <trkpt lon="20.038051" lat="49.466224"><ele>604.75</ele></trkpt>
   <trkpt lon="20.038016" lat="49.466321"><ele>603.75</ele></trkpt>
   <trkpt lon="20.038040" lat="49.466477"><ele>603.0</ele></trkpt>
   <trkpt lon="20.038155" lat="49.466725"><ele>602.0</ele></trkpt>
   <trkpt lon="20.038034" lat="49.466756"><ele>598.25</ele></trkpt>
   <trkpt lon="20.037049" lat="49.466991"><ele>596.0</ele></trkpt>
   <trkpt lon="20.037000" lat="49.467006"><ele>596.25</ele></trkpt>
   <trkpt lon="20.036923" lat="49.467045"><ele>596.5</ele></trkpt>
   <trkpt lon="20.036831" lat="49.467137"><ele>596.25</ele></trkpt>
   <trkpt lon="20.036718" lat="49.467294"><ele>596.5</ele></trkpt>
   <trkpt lon="20.036643" lat="49.467323"><ele>596.5</ele></trkpt>
   <trkpt lon="20.036519" lat="49.467374"><ele>596.0</ele></trkpt>
   <trkpt lon="20.036155" lat="49.467441"><ele>595.25</ele></trkpt>
   <trkpt lon="20.035882" lat="49.467452"><ele>595.0</ele></trkpt>
   <trkpt lon="20.035794" lat="49.467487"><ele>595.0</ele></trkpt>
   <trkpt lon="20.035617" lat="49.467682"><ele>595.25</ele></trkpt>
   <trkpt lon="20.035383" lat="49.467981"><ele>595.0</ele></trkpt>
   <trkpt lon="20.035171" lat="49.468129"><ele>595.0</ele></trkpt>
   <trkpt lon="20.034870" lat="49.468292"><ele>595.0</ele></trkpt>
   <trkpt lon="20.034491" lat="49.468448"><ele>594.75</ele></trkpt>
   <trkpt lon="20.034428" lat="49.468492"><ele>595.0</ele></trkpt>
   <trkpt lon="20.034266" lat="49.468717"><ele>595.25</ele></trkpt>
   <trkpt lon="20.034176" lat="49.468832"><ele>595.0</ele></trkpt>
   <trkpt lon="20.034162" lat="49.468875"><ele>595.0</ele></trkpt>
   <trkpt lon="20.034055" lat="49.469166"><ele>595.25</ele></trkpt>
   <trkpt lon="20.033994" lat="49.469243"><ele>595.5</ele></trkpt>
   <trkpt lon="20.033906" lat="49.469318"><ele>595.75</ele></trkpt>
   <trkpt lon="20.033793" lat="49.469399"><ele>596.0</ele></trkpt>
   <trkpt lon="20.033706" lat="49.469411"><ele>596.0</ele></trkpt>
   <trkpt lon="20.033734" lat="49.469493"><ele>596.0</ele></trkpt>
   <trkpt lon="20.033478" lat="49.469527"><ele>596.75</ele></trkpt>
   <trkpt lon="20.033367" lat="49.469543"><ele>597.0</ele></trkpt>
   <trkpt lon="20.032447" lat="49.469675"><ele>596.75</ele></trkpt>
   <trkpt lon="20.032270" lat="49.469700"><ele>596.0</ele></trkpt>
   <trkpt lon="20.032156" lat="49.469716"><ele>596.0</ele></trkpt>
   <trkpt lon="20.031616" lat="49.469786"><ele>597.0</ele></trkpt>
   <trkpt lon="20.031264" lat="49.469827"><ele>597.75</ele></trkpt>
   <trkpt lon="20.031193" lat="49.469838"><ele>597.75</ele></trkpt>
   <trkpt lon="20.030802" lat="49.469890"><ele>598.0</ele></trkpt>
   <trkpt lon="20.030743" lat="49.469898"><ele>598.0</ele></trkpt>
   <trkpt lon="20.029694" lat="49.470036"><ele>599.0</ele></trkpt>
   <trkpt lon="20.029297" lat="49.470097"><ele>599.5</ele></trkpt>
   <trkpt lon="20.029187" lat="49.470118"><ele>599.75</ele></trkpt>
   <trkpt lon="20.029038" lat="49.470149"><ele>600.0</ele></trkpt>
   <trkpt lon="20.028734" lat="49.470208"><ele>600.5</ele></trkpt>
   <trkpt lon="20.028680" lat="49.470217"><ele>600.75</ele></trkpt>
   <trkpt lon="20.028529" lat="49.470242"><ele>601.0</ele></trkpt>
   <trkpt lon="20.028401" lat="49.470261"><ele>601.0</ele></trkpt>
   <trkpt lon="20.028343" lat="49.470270"><ele>601.0</ele></trkpt>
   <trkpt lon="20.025953" lat="49.470647"><ele>600.25</ele></trkpt>
   <trkpt lon="20.025822" lat="49.470668"><ele>600.5</ele></trkpt>
   <trkpt lon="20.024708" lat="49.470841"><ele>600.0</ele></trkpt>
   <trkpt lon="20.024552" lat="49.470865"><ele>600.0</ele></trkpt>
   <trkpt lon="20.024288" lat="49.470906"><ele>600.0</ele></trkpt>
   <trkpt lon="20.024149" lat="49.470928"><ele>600.0</ele></trkpt>
   <trkpt lon="20.022626" lat="49.471178"><ele>600.25</ele></trkpt>
   <trkpt lon="20.021889" lat="49.471302"><ele>600.0</ele></trkpt>
   <trkpt lon="20.021793" lat="49.471325"><ele>600.25</ele></trkpt>
   <trkpt lon="20.021716" lat="49.471345"><ele>600.5</ele></trkpt>
   <trkpt lon="20.021555" lat="49.471373"><ele>600.75</ele></trkpt>
   <trkpt lon="20.021565" lat="49.471405"><ele>600.75</ele></trkpt>
   <trkpt lon="20.021551" lat="49.471407"><ele>600.75</ele></trkpt>
   <trkpt lon="20.021533" lat="49.471411"><ele>600.75</ele></trkpt>
   <trkpt lon="20.021467" lat="49.471422"><ele>600.75</ele></trkpt>
   <trkpt lon="20.021416" lat="49.471430"><ele>600.75</ele></trkpt>
   <trkpt lon="20.021392" lat="49.471434"><ele>600.75</ele></trkpt>
   <trkpt lon="20.021420" lat="49.471507"><ele>600.75</ele></trkpt>
   <trkpt lon="20.021397" lat="49.471511"><ele>600.75</ele></trkpt>
   <trkpt lon="20.021349" lat="49.471518"><ele>600.75</ele></trkpt>
   <trkpt lon="20.021282" lat="49.471529"><ele>600.75</ele></trkpt>
   <trkpt lon="20.021269" lat="49.471532"><ele>600.75</ele></trkpt>
   <trkpt lon="20.021290" lat="49.471596"><ele>600.5</ele></trkpt>
   <trkpt lon="20.021288" lat="49.471631"><ele>600.5</ele></trkpt>
   <trkpt lon="20.021282" lat="49.471655"><ele>600.5</ele></trkpt>
   <trkpt lon="20.021417" lat="49.471973"><ele>600.0</ele></trkpt>
   <trkpt lon="20.022075" lat="49.473606"><ele>598.25</ele></trkpt>
   <trkpt lon="20.022073" lat="49.473620"><ele>598.25</ele></trkpt>
   <trkpt lon="20.022004" lat="49.473654"><ele>598.0</ele></trkpt>
   <trkpt lon="20.022005" lat="49.473672"><ele>598.0</ele></trkpt>
   <trkpt lon="20.022188" lat="49.473894"><ele>598.75</ele></trkpt>
   <trkpt lon="20.022286" lat="49.474122"><ele>597.5</ele></trkpt>
   <trkpt lon="20.022252" lat="49.474145"><ele>597.25</ele></trkpt>
   <trkpt lon="20.021515" lat="49.474205"><ele>597.75</ele></trkpt>
   <trkpt lon="20.021264" lat="49.474236"><ele>597.75</ele></trkpt>
   <trkpt lon="20.021013" lat="49.474280"><ele>598.0</ele></trkpt>
   <trkpt lon="20.020601" lat="49.474331"><ele>598.0</ele></trkpt>
   <trkpt lon="20.020406" lat="49.474387"><ele>598.5</ele></trkpt>
   <trkpt lon="20.020218" lat="49.474449"><ele>599.0</ele></trkpt>
   <trkpt lon="20.020030" lat="49.474456"><ele>599.0</ele></trkpt>
   <trkpt lon="20.019868" lat="49.474448"><ele>598.5</ele></trkpt>
   <trkpt lon="20.018584" lat="49.474552"><ele>598.5</ele></trkpt>
   <trkpt lon="20.018340" lat="49.474617"><ele>598.5</ele></trkpt>
   <trkpt lon="20.018081" lat="49.474736"><ele>599.75</ele></trkpt>
   <trkpt lon="20.017368" lat="49.474384"><ele>600.0</ele></trkpt>
   <trkpt lon="20.017086" lat="49.474253"><ele>600.25</ele></trkpt>
   <trkpt lon="20.017020" lat="49.474344"><ele>600.25</ele></trkpt>
   <trkpt lon="20.016953" lat="49.474466"><ele>600.0</ele></trkpt>
   <trkpt lon="20.016829" lat="49.474693"><ele>600.0</ele></trkpt>
   <trkpt lon="20.016734" lat="49.474684"><ele>600.0</ele></trkpt>
   <trkpt lon="20.016045" lat="49.474623"><ele>600.0</ele></trkpt>
   <trkpt lon="20.015755" lat="49.474596"><ele>599.75</ele></trkpt>
   <trkpt lon="20.015128" lat="49.474538"><ele>600.0</ele></trkpt>
   <trkpt lon="20.014975" lat="49.474524"><ele>600.5</ele></trkpt>
   <trkpt lon="20.015072" lat="49.474408"><ele>600.75</ele></trkpt>
   <trkpt lon="20.015234" lat="49.474216"><ele>600.75</ele></trkpt>
   <trkpt lon="20.015472" lat="49.473901"><ele>601.25</ele></trkpt>
   <trkpt lon="20.015615" lat="49.473715"><ele>601.5</ele></trkpt>
   <trkpt lon="20.015696" lat="49.473606"><ele>601.75</ele></trkpt>
  </trkseg>
 </trk>
</gpx>
